61603,ONEWEB-0697,2024,97.11,-1.0,+,86.57,Active,0,LEO,USA,UK,Unknown,Unknown,Unknown,1 61603U 24188K   24320.98030973  .00003856  00000+0  47288-3 0  9992,2 61603  86.5711 159.0158 0003512 121.9936 238.1628 14.82882651  6930,14.82882651,0.0003512,LEO
61604,ONEWEB-0698,2024,97.11,-1.0,+,86.58,Active,0,LEO,USA,UK,Unknown,Unknown,Unknown,1 61604U 24188L   24321.10157109  .00003692  00000+0  45198-3 0  9995,2 61604  86.5788 158.9554 0006902 118.6787 241.5130 14.82928496  6952,14.82928496,0.0006902,LEO
61605,ONEWEB-0699,2024,97.78,-1.0,+,86.65,Active,0,LEO,USA,UK,Unknown,Unknown,Unknown,1 61605U 24188M   24321.83334491 -.00982188  00000+0 -16705+0 0  9993,2 61605  86.6573 158.7112 0002560 124.7978 344.1478 14.72038749  5181,14.72038749,0.000256,LEO
61606,ONEWEB-0700,2024,97.11,-1.0,+,86.57,Active,0,LEO,USA,UK,Unknown,Unknown,Unknown,1 61606U 24188N   24321.60097430 -.00484176  00000+0 -78053-1 0  9998,2 61606  86.6209 158.7775 0007237 112.9991 247.1991 14.73777054  5208,14.73777054,0.0007237,LEO
61607,ONEWEB-0701,2024,97.7,-1.0,+,86.65,Active,0,LEO,USA,UK,Unknown,Unknown,Unknown,1 61607U 24188P   24321.83334491 -.01043041  00000+0 -17347+0 0  9995,2 61607  86.6540 158.6912 0005722 111.1495  86.8068 14.73160603  5384,14.73160603,0.0005722,LEO
61608,ONEWEB-0702,2024,97.13,-1.0,+,86.58,Active,0,LEO,USA,UK,Unknown,Unknown,Unknown,1 61608U 24188Q   24321.84700144  .00000321  00000+0  36526-4 0  9995,2 61608  86.5814 158.6416 0007057 117.4677 242.7264 14.82591775  5144,14.82591775,0.0007057,LEO
61609,ONEWEB-0704,2024,97.81,-1.0,+,86.66,Active,0,LEO,USA,UK,Unknown,Unknown,Unknown,1 61609U 24188R   24321.83334491 -.01006285  00000+0 -17335+0 0  9993,2 61609  86.6625 158.7196 0003074 124.5504 336.6192 14.71549788  5198,14.71549788,0.0003074,LEO
61610,ONEWEB-0705,2024,97.56,-1.0,+,86.63,Active,0,LEO,USA,UK,Unknown,Unknown,Unknown,1 61610U 24188S   24321.83334491 -.01042317  00000+0 -16520+0 0  9996,2 61610  86.6379 158.6783 0006115 113.3281 118.5381 14.75224802  5327,14.75224802,0.0006115,LEO
